FENGYUN 1C DEB          
1 30293U 99025ZE  17345.79239840  .00000464  00000-0  17160-3 0  9996
2 30293  99.2015 276.2315 0096071  15.0048  38.3872 14.34992616569727
